{
  "type": "FeatureCollection",
  "features": [
    {
      "type": "Feature",
      "properties": {
        "norad_id": 64751,
        "name": "PROGRESS-MS 31",
        "group": "stations",
        "lat": 11.450121691898334,
        "lon": 166.7341534519446,
        "alt_km": 419.4169273122534,
        "timestamp": "2025-12-09T16:56:35.375902+00:00",
        "meta_object_name": "PROGRESS-MS 31",
        "meta_object_id": "2025-146A",
        "meta_epoch": "2025-12-09T04:29:48.234912",
        "meta_mean_motion": 15.4943846,
        "meta_eccentricity": 0.00033664,
        "meta_inclination": 51.6308,
        "meta_ra_of_asc_node": 160.0685,
        "meta_arg_of_pericenter": 223.6321,
        "meta_mean_anomaly": 136.4401,
        "meta_ephemeris_type": 0,
        "meta_classification_type": "U",
        "meta_norad_cat_id": 64751,
        "meta_element_set_no": 999,
        "meta_rev_at_epoch": 675,
        "meta_bstar": 0.0002526091,
        "meta_mean_motion_dot": 0.00013707,
        "meta_mean_motion_ddot": 0,
        "tle_line1": "1 64751U 25146A   25343.18736383  .00013707  00000+0  25261-3 0  9993",
        "tle_line2": "2 64751  51.6308 160.0685 0003366 223.6321 136.4401 15.49438460  6752"
      },
      "geometry": {
        "type": "Point",
        "coordinates": [
          166.7341534519446,
          11.450121691898334
        ]
      }
    },
    {
      "type": "Feature",
      "properties": {
        "norad_id": 64786,
        "name": "TIANZHOU-9",
        "group": "stations",
        "lat": 7.3546972397732375,
        "lon": 43.52680942039556,
        "alt_km": 383.18180270728044,
        "timestamp": "2025-12-09T16:56:35.375912+00:00",
        "meta_object_name": "TIANZHOU-9",
        "meta_object_id": "2025-149A",
        "meta_epoch": "2025-12-09T04:35:44.551104",
        "meta_mean_motion": 15.58940873,
        "meta_eccentricity": 0.00089717,
        "meta_inclination": 41.468,
        "meta_ra_of_asc_node": 38.2458,
        "meta_arg_of_pericenter": 2.1097,
        "meta_mean_anomaly": 357.9778,
        "meta_ephemeris_type": 0,
        "meta_classification_type": "U",
        "meta_norad_cat_id": 64786,
        "meta_element_set_no": 999,
        "meta_rev_at_epoch": 25530,
        "meta_bstar": 0.00038224086,
        "meta_mean_motion_dot": 0.00030369,
        "meta_mean_motion_ddot": 0,
        "tle_line1": "1 64786U 25149A   25343.19148786  .00030369  00000+0  38224-3 0  9995",
        "tle_line2": "2 64786  41.4680  38.2458 0008971   2.1097 357.9778 15.58940873255301"
      },
      "geometry": {
        "type": "Point",
        "coordinates": [
          43.52680942039556,
          7.3546972397732375
        ]
      }
    },
    {
      "type": "Feature",
      "properties": {
        "norad_id": 65077,
        "name": "CREW DRAGON 11",
        "group": "stations",
        "lat": 11.450122691496732,
        "lon": 166.73415428607672,
        "alt_km": 419.41692718881313,
        "timestamp": "2025-12-09T16:56:35.375922+00:00",
        "meta_object_name": "CREW DRAGON 11",
        "meta_object_id": "2025-166A",
        "meta_epoch": "2025-12-09T04:29:48.234912",
        "meta_mean_motion": 15.4943846,
        "meta_eccentricity": 0.00033664,
        "meta_inclination": 51.6308,
        "meta_ra_of_asc_node": 160.0685,
        "meta_arg_of_pericenter": 223.6321,
        "meta_mean_anomaly": 136.4401,
        "meta_ephemeris_type": 0,
        "meta_classification_type": "U",
        "meta_norad_cat_id": 65077,
        "meta_element_set_no": 999,
        "meta_rev_at_epoch": 214,
        "meta_bstar": 0.0002526091,
        "meta_mean_motion_dot": 0.00013707,
        "meta_mean_motion_ddot": 0,
        "tle_line1": "1 65077U 25166A   25343.18736383  .00013707  00000+0  25261-3 0  9997",
        "tle_line2": "2 65077  51.6308 160.0685 0003366 223.6321 136.4401 15.49438460  2143"
      },
      "geometry": {
        "type": "Point",
        "coordinates": [
          166.73415428607672,
          11.450122691496732
        ]
      }
    },
    {
      "type": "Feature",
      "properties": {
        "norad_id": 65304,
        "name": "DRAGON CRS-33",
        "group": "stations",
        "lat": 11.450123241275923,
        "lon": 166.73415474484943,
        "alt_km": 419.416927120923,
        "timestamp": "2025-12-09T16:56:35.375933+00:00",
        "meta_object_name": "DRAGON CRS-33",
        "meta_object_id": "2025-186A",
        "meta_epoch": "2025-12-09T04:29:48.234912",
        "meta_mean_motion": 15.4943846,
        "meta_eccentricity": 0.00033664,
        "meta_inclination": 51.6308,
        "meta_ra_of_asc_node": 160.0685,
        "meta_arg_of_pericenter": 223.6321,
        "meta_mean_anomaly": 136.4401,
        "meta_ephemeris_type": 0,
        "meta_classification_type": "U",
        "meta_norad_cat_id": 65304,
        "meta_element_set_no": 999,
        "meta_rev_at_epoch": 11,
        "meta_bstar": 0.0002526091,
        "meta_mean_motion_dot": 0.00013707,
        "meta_mean_motion_ddot": 0,
        "tle_line1": "1 65304U 25186A   25343.18736383  .00013707  00000+0  25261-3 0  9992",
        "tle_line2": "2 65304  51.6308 160.0685 0003366 223.6321 136.4401 15.49438460   111"
      },
      "geometry": {
        "type": "Point",
        "coordinates": [
          166.73415474484943,
          11.450123241275923
        ]
      }
    },
    {
      "type": "Feature",
      "properties": {
        "norad_id": 65586,
        "name": "PROGRESS-MS 32",
        "group": "stations",
        "lat": 11.450123691095436,
        "lon": 166.7341551202091,
        "alt_km": 419.4169270653738,
        "timestamp": "2025-12-09T16:56:35.375942+00:00",
        "meta_object_name": "PROGRESS-MS 32",
        "meta_object_id": "2025-204A",
        "meta_epoch": "2025-12-09T04:29:48.234912",
        "meta_mean_motion": 15.4943846,
        "meta_eccentricity": 0.00033664,
        "meta_inclination": 51.6308,
        "meta_ra_of_asc_node": 160.0685,
        "meta_arg_of_pericenter": 223.6321,
        "meta_mean_anomaly": 136.4401,
        "meta_ephemeris_type": 0,
        "meta_classification_type": "U",
        "meta_norad_cat_id": 65586,
        "meta_element_set_no": 999,
        "meta_rev_at_epoch": 27,
        "meta_bstar": 0.0002526091,
        "meta_mean_motion_dot": 0.00013707,
        "meta_mean_motion_ddot": 0,
        "tle_line1": "1 65586U 25204A   25343.18736383  .00013707  00000+0  25261-3 0  9995",
        "tle_line2": "2 65586  51.6308 160.0685 0003366 223.6321 136.4401 15.49438460   270"
      },
      "geometry": {
        "type": "Point",
        "coordinates": [
          166.7341551202091,
          11.450123691095436
        ]
      }
    },
    {
      "type": "Feature",
      "properties": {
        "norad_id": 65616,
        "name": "CYGNUS NG-23",
        "group": "stations",
        "lat": 11.45012419089416,
        "lon": 166.7341555372748,
        "alt_km": 419.41692700365456,
        "timestamp": "2025-12-09T16:56:35.375952+00:00",
        "meta_object_name": "CYGNUS NG-23",
        "meta_object_id": "2025-208A",
        "meta_epoch": "2025-12-09T04:29:48.234912",
        "meta_mean_motion": 15.4943846,
        "meta_eccentricity": 0.00033664,
        "meta_inclination": 51.6308,
        "meta_ra_of_asc_node": 160.0685,
        "meta_arg_of_pericenter": 223.6321,
        "meta_mean_anomaly": 136.4401,
        "meta_ephemeris_type": 0,
        "meta_classification_type": "U",
        "meta_norad_cat_id": 65616,
        "meta_element_set_no": 999,
        "meta_rev_at_epoch": 22,
        "meta_bstar": 0.0002526091,
        "meta_mean_motion_dot": 0.00013707,
        "meta_mean_motion_ddot": 0,
        "tle_line1": "1 65616U 25208A   25343.18736383  .00013707  00000+0  25261-3 0  9993",
        "tle_line2": "2 65616  51.6308 160.0685 0003366 223.6321 136.4401 15.49438460   229"
      },
      "geometry": {
        "type": "Point",
        "coordinates": [
          166.7341555372748,
          11.45012419089416
        ]
      }
    },
    {
      "type": "Feature",
      "properties": {
        "norad_id": 65729,
        "name": "DRAGONFLY",
        "group": "stations",
        "lat": 45.24085755839668,
        "lon": -81.7664232061214,
        "alt_km": 354.4949420808407,
        "timestamp": "2025-12-09T16:56:35.375963+00:00",
        "meta_object_name": "DRAGONFLY",
        "meta_object_id": "1998-067XH",
        "meta_epoch": "2025-12-09T11:52:26.095008",
        "meta_mean_motion": 15.70499103,
        "meta_eccentricity": 0.0006537,
        "meta_inclination": 51.6245,
        "meta_ra_of_asc_node": 152.3636,
        "meta_arg_of_pericenter": 255.9884,
        "meta_mean_anomaly": 104.0387,
        "meta_ephemeris_type": 0,
        "meta_classification_type": "U",
        "meta_norad_cat_id": 65729,
        "meta_element_set_no": 999,
        "meta_rev_at_epoch": 1265,
        "meta_bstar": 0.0014915,
        "meta_mean_motion_dot": 0.00190953,
        "meta_mean_motion_ddot": 0,
        "tle_line1": "1 65729U 98067XH  25343.49474647  .00190953  00000+0  14915-2 0  9999",
        "tle_line2": "2 65729  51.6245 152.3636 0006537 255.9884 104.0387 15.70499103 12658"
      },
      "geometry": {
        "type": "Point",
        "coordinates": [
          -81.7664232061214,
          45.24085755839668
        ]
      }
    }
  ]
}